SENTINEL-6              
1 46984U 20086A   24082.87965534 -.00000063  00000+0 -87577-5 0  9999
2 46984  66.0439  30.5286 0007878 271.3917  88.6196 12.80929218155770
